EUTELSAT 172B           
1 42741U 17029B   17345.29930823 -.00000013  00000-0  00000+0 0  9997
2 42741   0.0422  82.7891 0001014 247.5054  29.7050  1.00269147  2528
